LEMUR-2-PETERG          
1 42841U 17042S   26068.48235713  .00023240  00000+0  81076-3 0  9993
2 42841  97.3980 253.6596 0003700 341.6938  18.4169 15.29611459473171
STARLINK-30283          
1 57680U 23124T   26068.68013718  .00001737  00000+0  70780-4 0  9997
2 57680  53.1595 207.0334 0001345  88.9333 271.1822 15.30196514143569
